[{"OBJECT_NAME":"STARLINK-2245","OBJECT_ID":"2021-041AN","EPOCH":"2026-03-09T10:13:59.683008","MEAN_MOTION":15.30209458,"ECCENTRICITY":0.00013484,"INCLINATION":53.161,"RA_OF_ASC_NODE":127.9568,"ARG_OF_PERICENTER":87.2561,"MEAN_ANOMALY":272.8594,"EPHEMERIS_TYPE":0,"CLASSIFICATION_TYPE":"U","NORAD_CAT_ID":48589,"ELEMENT_SET_NO":999,"REV_AT_EPOCH":26523,"BSTAR":6.5781708e-5,"MEAN_MOTION_DOT":1.59e-5,"MEAN_MOTION_DDOT":0},{"OBJECT_NAME":"SCS-01 D","OBJECT_ID":"2025-100D","EPOCH":"2026-03-09T18:08:45.040704","MEAN_MOTION":15.31902149,"ECCENTRICITY":0.00063457,"INCLINATION":97.373,"RA_OF_ASC_NODE":145.4097,"ARG_OF_PERICENTER":266.2302,"MEAN_ANOMALY":93.8214,"EPHEMERIS_TYPE":0,"CLASSIFICATION_TYPE":"U","NORAD_CAT_ID":63985,"ELEMENT_SET_NO":999,"REV_AT_EPOCH":4562,"BSTAR":0.0010528181,"MEAN_MOTION_DOT":0.00032471,"MEAN_MOTION_DDOT":0}]
